NORAD_CAT_ID,OBJECT_NAME,OBJECT_TYPE,EPOCH,MEAN_MOTION,ECCENTRICITY,INCLINATION,RA_OF_ASC_NODE,ARG_OF_PERICENTER,MEAN_ANOMALY,BSTAR,MEAN_MOTION_DOT,MEAN_MOTION_DDOT,TLE_LINE0,TLE_LINE1,TLE_LINE2,SEMIMAJOR_AXIS,PERIOD,APOGEE,PERIGEE,DECAYED
49432.0,STARLINK-3158,PAYLOAD,2024-08-20 08:18:54,15.08841597,0.0001112,53.2153,241.5347,79.0409,281.0708,4.773e-06,-2.12e-06,0.0,0 STARLINK-3158,1 49432U 21104AA  24233.34646787 -.00000212  00000-0  47730-5 0  9991,2 49432  53.2153 241.5347 0001112  79.0409 281.0708 15.08841597153275,6917.876,95.437,540.51,538.971,0.0
49432.0,STARLINK-3158,PAYLOAD,2024-08-21 04:58:55,15.08844491,9.99e-05,53.2137,237.6682,80.8601,279.2504,1.0562e-05,-1.2e-06,0.0,0 STARLINK-3158,1 49432U 21104AA  24234.20758775 -.00000120  00000-0  10562-4 0  9998,2 49432  53.2137 237.6682 0000999  80.8601 279.2504 15.08844491154484,6917.867,95.437,540.423,539.041,0.0
49432.0,STARLINK-3158,PAYLOAD,2024-08-21 06:34:18,15.08843925,0.0001074,53.215,237.3718,80.9111,279.2003,1.7817e-05,-4e-08,0.0,0 STARLINK-3158,1 49432U 21104AA  24234.27382801 -.00000004  00000-0  17817-4 0  9999,2 49432  53.2150 237.3718 0001074  80.9111 279.2003 15.08843925153415,6917.868,95.437,540.476,538.99,0.0
